{
  "links" : {
    "next" : "https://api.nasa.gov/neo/rest/v1/feed?start_date=2001-02-09&end_date=2001-02-09&detailed=true&api_key=t0TVs3DtDT2H8Oy2Zy8m2eVrNsAVKAexjcZXUckd",
    "prev" : "https://api.nasa.gov/neo/rest/v1/feed?start_date=2001-02-07&end_date=2001-02-07&detailed=true&api_key=t0TVs3DtDT2H8Oy2Zy8m2eVrNsAVKAexjcZXUckd",
    "self" : "https://api.nasa.gov/neo/rest/v1/feed?start_date=2001-02-08&end_date=2001-02-08&detailed=true&api_key=t0TVs3DtDT2H8Oy2Zy8m2eVrNsAVKAexjcZXUckd"
  },
  "element_count" : 3,
  "near_earth_objects" : {
    "2001-02-08" : [ {
      "links" : {
        "self" : "https://api.nasa.gov/neo/rest/v1/neo/3076610?api_key=t0TVs3DtDT2H8Oy2Zy8m2eVrNsAVKAexjcZXUckd"
      },
      "neo_reference_id" : "3076610",
      "name" : "(2001 DT8)",
      "nasa_jpl_url" : "http://ssd.jpl.nasa.gov/sbdb.cgi?sstr=3076610",
      "absolute_magnitude_h" : 19.5,
      "estimated_diameter" : {
        "kilometers" : {
          "estimated_diameter_min" : 0.3346223745,
          "estimated_diameter_max" : 0.7482383761
        },
        "meters" : {
          "estimated_diameter_min" : 334.6223744549,
          "estimated_diameter_max" : 748.2383760735
        },
        "miles" : {
          "estimated_diameter_min" : 0.2079246394,
          "estimated_diameter_max" : 0.464933628
        },
        "feet" : {
          "estimated_diameter_min" : 1097.8424710066,
          "estimated_diameter_max" : 2454.8503937571
        }
      },
      "is_potentially_hazardous_asteroid" : false,
      "close_approach_data" : [ {
        "close_approach_date" : "2001-02-08",
        "epoch_date_close_approach" : 981619200000,
        "relative_velocity" : {
          "kilometers_per_second" : "26.22956571",
          "kilometers_per_hour" : "94426.4365560464",
          "miles_per_hour" : "58672.9155367279"
        },
        "miss_distance" : {
          "astronomical" : "0.2751240142",
          "lunar" : "107.0232391357",
          "kilometers" : "41157968",
          "miles" : "25574374"
        },
        "orbiting_body" : "Earth"
      } ],
      "orbital_data" : {
        "orbit_id" : "18",
        "orbit_determination_date" : "2017-04-06 09:16:31",
        "orbit_uncertainty" : "7",
        "minimum_orbit_intersection" : ".224774",
        "jupiter_tisserand_invariant" : "3.066",
        "epoch_osculation" : "2458000.5",
        "eccentricity" : ".4673425225878713",
        "semi_major_axis" : "2.269435934173295",
        "inclination" : "48.52890919072197",
        "ascending_node_longitude" : "315.3155170712597",
        "orbital_period" : "1248.749472126349",
        "perihelion_distance" : "1.208832019845185",
        "perihelion_argument" : "182.3500612812004",
        "aphelion_distance" : "3.330039848501405",
        "perihelion_time" : "2458199.979585876383",
        "mean_anomaly" : "302.4923473295115",
        "mean_motion" : ".2882884101540384",
        "equinox" : "J2000"
      }
    }, {
      "links" : {
        "self" : "https://api.nasa.gov/neo/rest/v1/neo/2163693?api_key=t0TVs3DtDT2H8Oy2Zy8m2eVrNsAVKAexjcZXUckd"
      },
      "neo_reference_id" : "2163693",
      "name" : "163693 Atira (2003 CP20)",
      "nasa_jpl_url" : "http://ssd.jpl.nasa.gov/sbdb.cgi?sstr=2163693",
      "absolute_magnitude_h" : 16.3,
      "estimated_diameter" : {
        "kilometers" : {
          "estimated_diameter_min" : 1.4606796427,
          "estimated_diameter_max" : 3.2661789745
        },
        "meters" : {
          "estimated_diameter_min" : 1460.6796427136,
          "estimated_diameter_max" : 3266.1789744576
        },
        "miles" : {
          "estimated_diameter_min" : 0.9076239703,
          "estimated_diameter_max" : 2.0295088955
        },
        "feet" : {
          "estimated_diameter_min" : 4792.2561990004,
          "estimated_diameter_max" : 10715.8106265596
        }
      },
      "is_potentially_hazardous_asteroid" : false,
      "close_approach_data" : [ {
        "close_approach_date" : "2001-02-08",
        "epoch_date_close_approach" : 981619200000,
        "relative_velocity" : {
          "kilometers_per_second" : "21.6065458901",
          "kilometers_per_hour" : "77783.5652041908",
          "miles_per_hour" : "48331.6825014596"
        },
        "miss_distance" : {
          "astronomical" : "0.3519888824",
          "lunar" : "136.9236755371",
          "kilometers" : "52656788",
          "miles" : "32719410"
        },
        "orbiting_body" : "Earth"
      } ],
      "orbital_data" : {
        "orbit_id" : "84",
        "orbit_determination_date" : "2017-08-02 06:21:20",
        "orbit_uncertainty" : "0",
        "minimum_orbit_intersection" : ".205902",
        "jupiter_tisserand_invariant" : "7.666",
        "epoch_osculation" : "2458000.5",
        "eccentricity" : ".3221493022499302",
        "semi_major_axis" : ".7410810355049036",
        "inclination" : "25.61780739807997",
        "ascending_node_longitude" : "103.8991143235559",
        "orbital_period" : "233.0220273374321",
        "perihelion_distance" : ".5023422970063431",
        "perihelion_argument" : "252.9324200567315",
        "aphelion_distance" : ".979819774003464",
        "perihelion_time" : "2457947.567091775550",
        "mean_anomaly" : "81.77701987464016",
        "mean_motion" : "1.544918324303715",
        "equinox" : "J2000"
      }
    }, {
      "links" : {
        "self" : "https://api.nasa.gov/neo/rest/v1/neo/3646648?api_key=t0TVs3DtDT2H8Oy2Zy8m2eVrNsAVKAexjcZXUckd"
      },
      "neo_reference_id" : "3646648",
      "name" : "(2013 QN10)",
      "nasa_jpl_url" : "http://ssd.jpl.nasa.gov/sbdb.cgi?sstr=3646648",
      "absolute_magnitude_h" : 22.3,
      "estimated_diameter" : {
        "kilometers" : {
          "estimated_diameter_min" : 0.0921626549,
          "estimated_diameter_max" : 0.2060819612
        },
        "meters" : {
          "estimated_diameter_min" : 92.1626548503,
          "estimated_diameter_max" : 206.0819612321
        },
        "miles" : {
          "estimated_diameter_min" : 0.057267201,
          "estimated_diameter_max" : 0.1280533543
        },
        "feet" : {
          "estimated_diameter_min" : 302.370924539,
          "estimated_diameter_max" : 676.1219416887
        }
      },
      "is_potentially_hazardous_asteroid" : false,
      "close_approach_data" : [ {
        "close_approach_date" : "2001-02-08",
        "epoch_date_close_approach" : 981619200000,
        "relative_velocity" : {
          "kilometers_per_second" : "14.351706691",
          "kilometers_per_hour" : "51666.1440876133",
          "miles_per_hour" : "32103.3326971062"
        },
        "miss_distance" : {
          "astronomical" : "0.4164828569",
          "lunar" : "162.0118408203",
          "kilometers" : "62304952",
          "miles" : "38714500"
        },
        "orbiting_body" : "Earth"
      } ],
      "orbital_data" : {
        "orbit_id" : "15",
        "orbit_determination_date" : "2017-04-06 08:45:04",
        "orbit_uncertainty" : "2",
        "minimum_orbit_intersection" : ".0529905",
        "jupiter_tisserand_invariant" : "6.145",
        "epoch_osculation" : "2458000.5",
        "eccentricity" : ".5122579976781708",
        "semi_major_axis" : ".9616079643955595",
        "inclination" : "6.043859849402944",
        "ascending_node_longitude" : "177.4962534287696",
        "orbital_period" : "344.4256640240324",
        "perihelion_distance" : ".4690165940029084",
        "perihelion_argument" : "24.21133289096329",
        "aphelion_distance" : "1.454199334788211",
        "perihelion_time" : "2457830.642529027767",
        "mean_anomaly" : "177.5381335861701",
        "mean_motion" : "1.045218279596264",
        "equinox" : "J2000"
      }
    } ]
  }
}